GLOBALSTAR M045         
1 25676U 99019A   25200.46024988 -.00000070  00000+0  20883-3 0  9995
2 25676  51.9936 213.2848 0000359 262.3566 245.3870 12.27064154197598
GLOBALSTAR M019         
1 25677U 99019B   25199.91141755 -.00000017  00000+0  76176-3 0  9992
2 25677  51.9900 347.4466 0001640  57.6302 116.7953 12.13874168188999
GLOBALSTAR M044         
1 25678U 99019C   25200.51764856 -.00000104  00000+0 -28032-3 0  9991
2 25678  51.9987 301.1696 0006588 105.9593 338.3089 11.90254621175158
GLOBALSTAR M042         
1 25679U 99019D   25200.53830397 -.00000083  00000+0  82159-4 0  9994
2 25679  52.0037 319.6277 0002778  20.0491  62.0604 12.22084466189284
GLOBALSTAR M025         
1 25770U 99031A   25199.83446299 -.00000069  00000+0 -40856-4 0  9997
2 25770  51.9825  85.9587 0001080 192.3480 257.4849 11.22560450485261
GLOBALSTAR M049         
1 25771U 99031B   25200.52657183 -.00000094  00000+0 -10131-2 0  9992
2 25771  51.9870 120.7442 0003360  55.2494 304.8619 11.12117066121028
GLOBALSTAR M047         
1 25772U 99031C   25200.46989491 -.00000074  00000+0 -13352-3 0  9993
2 25772  51.9828 114.7573 0016732 320.2171  39.7408 11.31929062149538
GLOBALSTAR M052         
1 25773U 99031D   25199.80996675 -.00000073  00000+0 -23433-3 0  9991
2 25773  51.9832 230.5990 0002943 227.7943 303.3234 11.15060206482031
